{"type": "FeatureCollection", "features": [ {"type": "Feature", "properties": {"norad_id": 66628, "name": "STARLINK-35862", "group": "last-30-days", "lat": 26.352538115530745, "lon": -18.963673200009936, "alt_km": 415.3997396836112, "timestamp": "2025-12-13T15:35:10.876886+00:00", "meta": {"OBJECT_NAME": "STARLINK-35862", "OBJECT_ID": "2025-271M", "EPOCH": "2025-12-12T20:00:01.999872", "MEAN_MOTION": 15.49229575, "ECCENTRICITY": 8.688e-05, "INCLINATION": 53.1595, "RA_OF_ASC_NODE": 186.7412, "ARG_OF_PERICENTER": 73.1996, "MEAN_ANOMALY": 198.8233, "EPHEMERIS_TYPE": 0, "CLASSIFICATION_TYPE": "U", "NORAD_CAT_ID": 66628, "ELEMENT_SET_NO": 999, "REV_AT_EPOCH": 425, "BSTAR": 0.0012567389, "MEAN_MOTION_DOT": 0.00069878, "MEAN_MOTION_DDOT": 0}, "tle": {"line1": "1 66628U 25271M   25346.83335648  .00069878  00000+0  12567-2 0  9995", "line2": "2 66628  53.1595 186.7412 0000868  73.1996 198.8233 15.49229575  4258"}}, "geometry": {"type": "Point", "coordinates": [-18.963673200009936, 26.352538115530745]}}, {"type": "Feature", "properties": {"norad_id": 66629, "name": "STARLINK-35956", "group": "last-30-days", "lat": 24.92804114458038, "lon": -17.55864555564979, "alt_km": 415.660477604315, "timestamp": "2025-12-13T15:35:10.876895+00:00", "meta": {"OBJECT_NAME": "STARLINK-35956", "OBJECT_ID": "2025-271N", "EPOCH": "2025-12-12T20:00:01.999872", "MEAN_MOTION": 15.49227898, "ECCENTRICITY": 8.411e-05, "INCLINATION": 53.1595, "RA_OF_ASC_NODE": 186.7376, "ARG_OF_PERICENTER": 73.5806, "MEAN_ANOMALY": 200.3564, "EPHEMERIS_TYPE": 0, "CLASSIFICATION_TYPE": "U", "NORAD_CAT_ID": 66629, "ELEMENT_SET_NO": 999, "REV_AT_EPOCH": 425, "BSTAR": 0.0012375013, "MEAN_MOTION_DOT": 0.00068787, "MEAN_MOTION_DDOT": 0}, "tle": {"line1": "1 66629U 25271N   25346.83335648  .00068787  00000+0  12375-2 0  9991", "line2": "2 66629  53.1595 186.7376 0000841  73.5806 200.3564 15.49227898  4255"}}, "geometry": {"type": "Point", "coordinates": [-17.55864555564979, 24.92804114458038]}}, {"type": "Feature", "properties": {"norad_id": 66630, "name": "STARLINK-35949", "group": "last-30-days", "lat": 23.517124748374787, "lon": -16.212448465032242, "alt_km": 415.77722149460715, "timestamp": "2025-12-13T15:35:10.876905+00:00", "meta": {"OBJECT_NAME": "STARLINK-35949", "OBJECT_ID": "2025-271P", "EPOCH": "2025-12-12T20:00:01.999872", "MEAN_MOTION": 15.49297866, "ECCENTRICITY": 0.00012569, "INCLINATION": 53.1598, "RA_OF_ASC_NODE": 186.7322, "ARG_OF_PERICENTER": 98.9024, "MEAN_ANOMALY": 176.9415, "EPHEMERIS_TYPE": 0, "CLASSIFICATION_TYPE": "U", "NORAD_CAT_ID": 66630, "ELEMENT_SET_NO": 999, "REV_AT_EPOCH": 425, "BSTAR": -0.00058312883, "MEAN_MOTION_DOT": -0.00032731, "MEAN_MOTION_DDOT": 0}, "tle": {"line1": "1 66630U 25271P   25346.83335648 -.00032731  00000+0 -58313-3 0  9998", "line2": "2 66630  53.1598 186.7322 0001256  98.9024 176.9415 15.49297866  4250"}}, "geometry": {"type": "Point", "coordinates": [-16.212448465032242, 23.517124748374787]}}, {"type": "Feature", "properties": {"norad_id": 66631, "name": "STARLINK-35965", "group": "last-30-days", "lat": 22.07617011947473, "lon": -14.875882058721542, "alt_km": 416.29411471451203, "timestamp": "2025-12-13T15:35:10.876915+00:00", "meta": {"OBJECT_NAME": "STARLINK-35965", "OBJECT_ID": "2025-271Q", "EPOCH": "2025-12-12T20:00:01.999872", "MEAN_MOTION": 15.49205043, "ECCENTRICITY": 6.575e-05, "INCLINATION": 53.1596, "RA_OF_ASC_NODE": 186.7293, "ARG_OF_PERICENTER": 67.3448, "MEAN_ANOMALY": 210.4258, "EPHEMERIS_TYPE": 0, "CLASSIFICATION_TYPE": "U", "NORAD_CAT_ID": 66631, "ELEMENT_SET_NO": 999, "REV_AT_EPOCH": 425, "BSTAR": 0.0012594724, "MEAN_MOTION_DOT": 0.00069971, "MEAN_MOTION_DDOT": 0}, "tle": {"line1": "1 66631U 25271Q   25346.83335648  .00069971  00000+0  12595-2 0  9994", "line2": "2 66631  53.1596 186.7293 0000657  67.3448 210.4258 15.49205043  4255"}}, "geometry": {"type": "Point", "coordinates": [-14.875882058721542, 22.07617011947473]}}, {"type": "Feature", "properties": {"norad_id": 66632, "name": "STARLINK-35973", "group": "last-30-days", "lat": 20.623363377240906, "lon": -13.566648148906097, "alt_km": 416.4654602054943, "timestamp": "2025-12-13T15:35:10.876932+00:00", "meta": {"OBJECT_NAME": "STARLINK-35973", "OBJECT_ID": "2025-271R", "EPOCH": "2025-12-12T20:00:01.999872", "MEAN_MOTION": 15.4919898, "ECCENTRICITY": 8.366e-05, "INCLINATION": 53.1595, "RA_OF_ASC_NODE": 186.7251, "ARG_OF_PERICENTER": 76.5026, "MEAN_ANOMALY": 203.1855, "EPHEMERIS_TYPE": 0, "CLASSIFICATION_TYPE": "U", "NORAD_CAT_ID": 66632, "ELEMENT_SET_NO": 999, "REV_AT_EPOCH": 420, "BSTAR": 0.0012297529, "MEAN_MOTION_DOT": 0.0006828, "MEAN_MOTION_DDOT": 0}, "tle": {"line1": "1 66632U 25271R   25346.83335648  .00068280  00000+0  12298-2 0  9997", "line2": "2 66632  53.1595 186.7251 0000836  76.5026 203.1855 15.49198980  4200"}}, "geometry": {"type": "Point", "coordinates": [-13.566648148906097, 20.623363377240906]}}, {"type": "Feature", "properties": {"norad_id": 66633, "name": "STARLINK-35948", "group": "last-30-days", "lat": 19.12265298753263, "lon": -12.250160943126152, "alt_km": 416.65036347283876, "timestamp": "2025-12-13T15:35:10.876942+00:00", "meta": {"OBJECT_NAME": "STARLINK-35948", "OBJECT_ID": "2025-271S", "EPOCH": "2025-12-12T20:00:01.999872", "MEAN_MOTION": 15.49302804, "ECCENTRICITY": 0.00012735, "INCLINATION": 53.1595, "RA_OF_ASC_NODE": 186.7199, "ARG_OF_PERICENTER": 93.5768, "MEAN_ANOMALY": 188.0201, "EPHEMERIS_TYPE": 0, "CLASSIFICATION_TYPE": "U", "NORAD_CAT_ID": 66633, "ELEMENT_SET_NO": 999, "REV_AT_EPOCH": 425, "BSTAR": -0.00080132585, "MEAN_MOTION_DOT": -0.00044751, "MEAN_MOTION_DDOT": 0}, "tle": {"line1": "1 66633U 25271S   25346.83335648 -.00044751  00000+0 -80133-3 0  9991", "line2": "2 66633  53.1595 186.7199 0001273  93.5768 188.0201 15.49302804  4253"}}, "geometry": {"type": "Point", "coordinates": [-12.250160943126152, 19.12265298753263]}}, {"type": "Feature", "properties": {"norad_id": 66634, "name": "STARLINK-35967", "group": "last-30-days", "lat": 17.64258608347444, "lon": -10.981657641327077, "alt_km": 416.9069242297419, "timestamp": "2025-12-13T15:35:10.876952+00:00", "meta": {"OBJECT_NAME": "STARLINK-35967", "OBJECT_ID": "2025-271T", "EPOCH": "2025-12-12T20:00:01.999872", "MEAN_MOTION": 15.49306084, "ECCENTRICITY": 0.00012746, "INCLINATION": 53.1597, "RA_OF_ASC_NODE": 186.7158, "ARG_OF_PERICENTER": 95.6219, "MEAN_ANOMALY": 187.8914, "EPHEMERIS_TYPE": 0, "CLASSIFICATION_TYPE": "U", "NORAD_CAT_ID": 66634, "ELEMENT_SET_NO": 999, "REV_AT_EPOCH": 419, "BSTAR": -0.00093124779, "MEAN_MOTION_DOT": -0.00051893, "MEAN_MOTION_DDOT": 0}, "tle": {"line1": "1 66634U 25271T   25346.83335648 -.00051893  00000+0 -93125-3 0  9992", "line2": "2 66634  53.1597 186.7158 0001274  95.6219 187.8914 15.49306084  4191"}}, "geometry": {"type": "Point", "coordinates": [-10.981657641327077, 17.64258608347444]}}, {"type": "Feature", "properties": {"norad_id": 66635, "name": "STARLINK-35955", "group": "last-30-days", "lat": 16.309043549477078, "lon": -9.861664766793213, "alt_km": 418.2705787781224, "timestamp": "2025-12-13T15:35:10.876962+00:00", "meta": {"OBJECT_NAME": "STARLINK-35955", "OBJECT_ID": "2025-271U", "EPOCH": "2025-12-12T20:00:01.999872", "MEAN_MOTION": 15.49503802, "ECCENTRICITY": 3.724e-05, "INCLINATION": 53.1598, "RA_OF_ASC_NODE": 186.7125, "ARG_OF_PERICENTER": 118.7657, "MEAN_ANOMALY": 166.6477, "EPHEMERIS_TYPE": 0, "CLASSIFICATION_TYPE": "U", "NORAD_CAT_ID": 66635, "ELEMENT_SET_NO": 999, "REV_AT_EPOCH": 425, "BSTAR": -0.0066271895, "MEAN_MOTION_DOT": -0.00355173, "MEAN_MOTION_DDOT": 0}, "tle": {"line1": "1 66635U 25271U   25346.83335648 -.00355173  00000+0 -66272-2 0  9993", "line2": "2 66635  53.1598 186.7125 0000372 118.7657 166.6477 15.49503802  4251"}}, "geometry": {"type": "Point", "coordinates": [-9.861664766793213, 16.309043549477078]}}, {"type": "Feature", "properties": {"norad_id": 66636, "name": "STARLINK-35968", "group": "last-30-days", "lat": 14.671484336087715, "lon": -8.515036430791787, "alt_km": 417.57384227093553, "timestamp": "2025-12-13T15:35:10.876972+00:00", "meta": {"OBJECT_NAME": "STARLINK-35968", "OBJECT_ID": "2025-271V", "EPOCH": "2025-12-12T20:00:01.999872", "MEAN_MOTION": 15.49193993, "ECCENTRICITY": 8.599e-05, "INCLINATION": 53.1597, "RA_OF_ASC_NODE": 186.7078, "ARG_OF_PERICENTER": 67.0945, "MEAN_ANOMALY": 220.2625, "EPHEMERIS_TYPE": 0, "CLASSIFICATION_TYPE": "U", "NORAD_CAT_ID": 66636, "ELEMENT_SET_NO": 999, "REV_AT_EPOCH": 425, "BSTAR": 0.0012505411, "MEAN_MOTION_DOT": 0.00069439, "MEAN_MOTION_DDOT": 0}, "tle": {"line1": "1 66636U 25271V   25346.83335648  .00069439  00000+0  12505-2 0  9999", "line2": "2 66636  53.1597 186.7078 0000859  67.0945 220.2625 15.49193993  4252"}}, "geometry": {"type": "Point", "coordinates": [-8.515036430791787, 14.671484336087715]}}, {"type": "Feature", "properties": {"norad_id": 66637, "name": "STARLINK-35953", "group": "last-30-days", "lat": 13.166308665302225, "lon": -7.2997596442205275, "alt_km": 417.7946134510603, "timestamp": "2025-12-13T15:35:10.876982+00:00", "meta": {"OBJECT_NAME": "STARLINK-35953", "OBJECT_ID": "2025-271W", "EPOCH": "2025-12-12T20:00:01.999872", "MEAN_MOTION": 15.49194395, "ECCENTRICITY": 6.832e-05, "INCLINATION": 53.1596, "RA_OF_ASC_NODE": 186.704, "ARG_OF_PERICENTER": 69.7473, "MEAN_ANOMALY": 219.5244, "EPHEMERIS_TYPE": 0, "CLASSIFICATION_TYPE": "U", "NORAD_CAT_ID": 66637, "ELEMENT_SET_NO": 999, "REV_AT_EPOCH": 425, "BSTAR": 0.0012461835, "MEAN_MOTION_DOT": 0.00069195, "MEAN_MOTION_DDOT": 0}, "tle": {"line1": "1 66637U 25271W   25346.83335648  .00069195  00000+0  12462-2 0  9991", "line2": "2 66637  53.1596 186.7040 0000683  69.7473 219.5244 15.49194395  4256"}}, "geometry": {"type": "Point", "coordinates": [-7.2997596442205275, 13.166308665302225]}}]}